[{"OBJECT_NAME":"STARLINK-33656","OBJECT_ID":"2025-063AC","EPOCH":"2026-03-09T07:53:32.699616","MEAN_MOTION":15.30189501,"ECCENTRICITY":0.00014818,"INCLINATION":53.1601,"RA_OF_ASC_NODE":54.1769,"ARG_OF_PERICENTER":85.825,"MEAN_ANOMALY":274.292,"EPHEMERIS_TYPE":0,"CLASSIFICATION_TYPE":"U","NORAD_CAT_ID":63389,"ELEMENT_SET_NO":999,"REV_AT_EPOCH":5470,"BSTAR":0.00088451424,"MEAN_MOTION_DOT":0.00025921,"MEAN_MOTION_DDOT":0},{"OBJECT_NAME":"TRANSPORTER-1 OBJECT M","OBJECT_ID":"2021-006M","EPOCH":"2026-03-09T22:05:37.843296","MEAN_MOTION":15.3227845,"ECCENTRICITY":0.00102759,"INCLINATION":97.2377,"RA_OF_ASC_NODE":116.7915,"ARG_OF_PERICENTER":187.5492,"MEAN_ANOMALY":172.5597,"EPHEMERIS_TYPE":0,"CLASSIFICATION_TYPE":"U","NORAD_CAT_ID":47424,"ELEMENT_SET_NO":999,"REV_AT_EPOCH":28439,"BSTAR":0.00023985652,"MEAN_MOTION_DOT":7.411e-5,"MEAN_MOTION_DDOT":0}]
